ONEWEB-0328             
1 49197U 21083M   24214.38484235 -.00000130  00000+0 -39178-3 0  9990
2 49197  87.8899  96.5266 0001861  82.0318 278.1022 13.13467849141007
ONEWEB-0331             
1 49198U 21083N   24214.43889214 -.00000092  00000+0 -26610-3 0  9997
2 49198  87.9135 111.7769 0002159  85.3924 274.7455 13.18683834139761
ONEWEB-0333             
1 49199U 21083P   24214.38008295 -.00000006  00000+0 -52733-4 0  9995
2 49199  87.8908  96.5589 0001760  74.7340 285.3984 13.13467770141010
ONEWEB-0334             
1 49200U 21083Q   24214.79908747 -.00000023  00000+0 -87978-4 0  9992
2 49200  87.9173  50.6245 0001653  52.0944 308.0338 13.20770838147740
ONEWEB-0335             
1 49201U 21083R   24214.22297029  .00000108  00000+0  26155-3 0  9996
2 49201  87.8908  96.5788 0001752  82.7852 277.3476 13.13470570141001
ONEWEB-0336             
1 49202U 21083S   24214.72604826  .00001345  00000+0  36475-2 0  9998
2 49202  87.8853  96.4745 0001297  62.7763 297.3499 13.13472698142366
ONEWEB-0337             
1 49203U 21083T   24214.20220842  .00000416  00000+0  11054-2 0  9998
2 49203  87.8908  96.5774 0001830  81.7113 278.4224 13.13471310140997
ONEWEB-0338             
1 49204U 21083U   24214.50316875  .00000059  00000+0  11436-3 0  9992
2 49204  87.9179  50.6698 0001466  79.5292 280.6007 13.20771156146431
ONEWEB-0339             
1 49205U 21083V   24214.21345118  .00001481  00000+0  40211-2 0  9995
2 49205  87.8905  96.5697 0001961  81.5578 278.5773 13.13462892140971
ONEWEB-0340             
1 49206U 21083W   24214.42467114  .00000076  00000+0  15880-3 0  9994
2 49206  87.9136 111.7745 0002040  79.7963 280.3399 13.18686736139725
ONEWEB-0341             
1 49207U 21083X   24214.73607723  .00000051  00000+0  96875-4 0  9998
2 49207  87.9133 111.7265 0001525  99.9500 260.1804 13.18686284141074
ONEWEB-0342             
1 49208U 21083Y   24214.50948118  .00000073  00000+0  14749-3 0  9993
2 49208  87.9172  50.6748 0001662  83.4980 276.6342 13.20770626146405
ONEWEB-0343             
1 49209U 21083Z   24214.80720244 -.00000024  00000+0 -93973-4 0  9990
2 49209  87.9130 111.7161 0001313  88.1112 272.0171 13.18684850141135
ONEWEB-0344             
1 49210U 21083AA  24214.71335159 -.00000146  00000+0 -43561-3 0  9991
2 49210  87.8907  96.4881 0001876  94.1048 266.0296 13.13468155142343
ONEWEB-0345             
1 49211U 21083AB  24214.42610024 -.00000056  00000+0 -18857-3 0  9997
2 49211  87.8903  96.5193 0001916  95.8113 264.3235 13.13469904141013
ONEWEB-0346             
1 49212U 21083AC  24214.43731896  .00000038  00000+0  64191-4 0  9991
2 49212  87.9134 111.7944 0002330  82.6344 277.5053 13.18686445139732
ONEWEB-0348             
1 49213U 21083AD  24214.50000614 -.00000162  00000+0 -42918-3 0  9999
2 49213  87.9181  50.6531 0002311 101.6002 258.5390 13.20770443146433
ONEWEB-0350             
1 49214U 21083AE  24214.43564443  .00000435  00000+0  11559-2 0  9994
2 49214  87.8904  96.5089 0001833  91.4682 268.6657 13.13472067141044
ONEWEB-0351             
1 49215U 21083AF  24214.49355736  .00000096  00000+0  20394-3 0  9995
2 49215  87.9177  50.6516 0000876  75.9978 284.1253 13.20772298146390
ONEWEB-0352             
1 49216U 21083AG  24214.41657818  .00000067  00000+0  14856-3 0  9998
2 49216  87.8905  96.5448 0001309  77.1137 283.0139 13.13468033141134
ONEWEB-0354             
1 49217U 21083AH  24214.51894441  .00000056  00000+0  10534-3 0  9992
2 49217  87.9182  50.6331 0001761  98.1718 261.9615 13.20772821146438
ONEWEB-0355             
1 49218U 21083AJ  24214.37056448  .00000211  00000+0  54172-3 0  9993
2 49218  87.8908  96.5532 0001699  79.5827 280.5494 13.13468059141007
ONEWEB-0357             
1 49219U 21083AK  24214.51579024  .00000127  00000+0  28098-3 0  9994
2 49219  87.9177  50.6506 0001615  89.3066 270.8252 13.20773385146436
ONEWEB-0332             
1 49279U 21090A   24214.53915338 -.00000180  00000+0 -51978-3 0  9996
2 49279  87.8927  65.9137 0001734  73.4714 286.6606 13.14505063137638
ONEWEB-0347             
1 49280U 21090B   24214.50632819  .00000075  00000+0  15371-3 0  9993
2 49280  87.9179  50.6526 0001838  70.8299 289.3033 13.20770811140660
ONEWEB-0349             
1 49281U 21090C   24214.46213878 -.00000002  00000+0 -36290-4 0  9995
2 49281  87.9182  50.6619 0001849  84.4703 275.6641 13.20771800139447
ONEWEB-0353             
1 49282U 21090D   24214.53122133 -.00000119  00000+0 -35528-3 0  9998
2 49282  87.8925  65.9004 0001718  75.0778 285.0542 13.14500928137630
ONEWEB-0356             
1 49283U 21090E   24214.53630573  .00000016  00000+0  77809-5 0  9995
2 49283  87.9182  50.6413 0002764  83.4034 276.7414 13.20773243139458
ONEWEB-0358             
1 49284U 21090F   24214.49054182  .00000075  00000+0  15307-3 0  9995
2 49284  87.9181  50.6373 0002103  91.7021 268.4353 13.20772437140173
ONEWEB-0359             
1 49285U 21090G   24214.48738611  .00000102  00000+0  21784-3 0  9998
2 49285  87.9180  50.6554 0001815 103.2102 256.9234 13.20771398140155
ONEWEB-0360             
1 49286U 21090H   24214.55366812  .00000019  00000+0  14656-4 0  9995
2 49286  87.9181  50.6471 0001766  90.4035 269.7300 13.20766113139470
ONEWEB-0361             
1 49287U 21090J   24214.45897106  .00000008  00000+0 -11547-4 0  9995
2 49287  87.9182  50.6607 0001917  84.2028 275.9323 13.20769531139914
ONEWEB-0362             
1 49288U 21090K   24214.70321614 -.00000022  00000+0 -87020-4 0  9996
2 49288  87.9117  81.1788 0001456  83.2841 276.8457 13.19725825137453
ONEWEB-0363             
1 49289U 21090L   24214.47475983  .00000075  00000+0  15269-3 0  9991
2 49289  87.9182  50.6526 0002162  87.6878 272.4503 13.20770614139926
ONEWEB-0364             
1 49290U 21090M   24214.51263502  .00000087  00000+0  18286-3 0  9995
2 49290  87.9182  50.6707 0001921  84.3492 275.7860 13.20772516141060
ONEWEB-0365             
1 49291U 21090N   24214.63687188  .00000112  00000+0  24715-3 0  9992
2 49291  87.9109  81.1694 0001710  79.8156 280.3170 13.19726937136138
ONEWEB-0366             
1 49292U 21090P   24214.52805263 -.00000066  00000+0 -21132-3 0  9997
2 49292  87.8929  65.9104 0001850  78.2724 281.8613 13.14500543137613
ONEWEB-0367             
1 49293U 21090Q   24214.54892840 -.00000001  00000+0 -34748-4 0  9994
2 49293  87.9181  50.6323 0001818  79.9544 280.1794 13.20768283139451
ONEWEB-0368             
1 49294U 21090R   24214.52210577  .00000008  00000+0 -12860-4 0  9991
2 49294  87.9183  50.6685 0002333  65.1148 295.0228 13.20772758140603
ONEWEB-0369             
1 49295U 21090S   24214.55631625  .00000029  00000+0  39865-4 0  9992
2 49295  87.9117  81.1916 0001761  76.8681 283.2649 13.19727421136114
ONEWEB-0370             
1 49296U 21090T   24214.55841127  .00000023  00000+0  24107-4 0  9990
2 49296  87.9182  50.6349 0001748  99.3662 260.7668 13.20770919139499
ONEWEB-0371             
1 49297U 21090U   24214.64003962  .00000010  00000+0 -84980-5 0  9991
2 49297  87.9118  81.1645 0001683  80.1493 279.9830 13.19724552136169
ONEWEB-0372             
1 49298U 21090V   24214.54721716  .00000053  00000+0  97679-4 0  9999
2 49298  87.9181  50.6457 0001724  83.7716 276.3613 13.20770702139461
ONEWEB-0373             
1 49299U 21090W   24214.49843381  .00000143  00000+0  32071-3 0  9991
2 49299  87.9181  50.6709 0002083  80.6188 279.5181 13.20769908140643
ONEWEB-0374             
1 49300U 21090X   24214.51536867  .00000146  00000+0  35931-3 0  9996
2 49300  87.8927  65.8976 0001874  80.8960 279.2381 13.14501166137619
ONEWEB-0375             
1 49301U 21090Y   24214.56156379  .00000050  00000+0  90429-4 0  9996
2 49301  87.9179  50.6344 0002579  90.9792 269.1637 13.20773835140155
ONEWEB-0376             
1 49302U 21090Z   24214.56263759  .00000017  00000+0  10814-4 0  9991
2 49302  87.9109  81.1855 0001656  72.4212 287.7101 13.19726425136150
ONEWEB-0377             
1 49303U 21090AA  24214.54750053  .00000025  00000+0  28858-4 0  9994
2 49303  87.9182  50.6293 0001821  94.9403 265.1938 13.20770904140149
ONEWEB-0378             
1 49304U 21090AB  24214.49384774  .00000090  00000+0  18982-3 0  9990
2 49304  87.9183  50.6433 0001982  86.2052 273.9307 13.20771759139402
ONEWEB-0379             
1 49305U 21090AC  24214.58672444  .00000230  00000+0  58508-3 0  9999
2 49305  87.8927  65.8864 0001813  80.2247 279.9087 13.14504276138925
ONEWEB-0380             
1 49306U 21090AD  24214.55948659  .00000004  00000+0 -22647-4 0  9997
2 49306  87.9116  81.1936 0001773  81.8355 278.2979 13.19725282136129
ONEWEB-0381             
1 49307U 21090AE  24214.84720979 -.00000168  00000+0 -44390-3 0  9993
2 49307  87.9185  50.5767 0001940  90.4564 269.6792 13.20773154140790
ONEWEB-0382             
1 49308U 21090AF  24214.53157632 -.00000005  00000+0 -43506-4 0  9999
2 49308  87.9181  50.6361 0002279  83.7622 276.3771 13.20771750139446
ONEWEB-0383             
1 49309U 21090AG  24214.50427119  .00000190  00000+0  47824-3 0  9996
2 49309  87.8925  65.8903 0001962  78.0408 282.0941 13.14500803137644
ONEWEB-0384             
1 49310U 21090AH  24214.52841916  .00000028  00000+0  36255-4 0  9992
2 49310  87.9183  50.6488 0002376  82.6325 277.5078 13.20772268139456
ONEWEB-0385             
1 49311U 21090AJ  24214.52368062 -.00000010  00000+0 -56552-4 0  9994
2 49311  87.9182  50.6510 0002220  88.0255 272.1133 13.20772493139422
ONEWEB-0386             
1 49312U 21090AK  24214.54104248 -.00000001  00000+0 -33186-4 0  9999
2 49312  87.9176  50.6393 0002094  83.7269 276.4103 13.20772263139442
ONEWEB-0387             
1 49313U 21090AL  24214.52525903  .00000011  00000+0 -50735-5 0  9993
2 49313  87.9183  50.7078 0002151  93.8698 266.2681 13.20773169139448
ONEWEB-0388             
1 49314U 21090AM  24214.55473852  .00000049  00000+0  89376-4 0  9994
2 49314  87.9117  81.1982 0001927  78.6366 281.4983 13.19726603136115
